{"type":"FeatureCollection","features":[{"type":"Feature","id":"North","properties":{"zone":"North"},"geometry":{"type":"Polygon","coordinates":[[[69.48448194520041,26.804795081237984],[69.58693313097405,27.184217534285942],[70.02490182534399,27.561850210288657],[70.13285142049881,27.805608560889134],[70.37140077071022,28.011817072469437],[70.58853473426709,28.01044289246936],[70.67722117946936,27.92108810381891],[70.75685496316012,27.72409211815511],[70.90415007852371,27.709586914709234],[71.20504195803318,27.83590887455825],[71.66604022454402,27.87852755638607],[71.888442343998,27.955457433635008],[71.92812290636147,28.121801444353597],[72.20564850043708,28.393253187386964],[72.29971349696058,28.668953318127148],[72.40350589310242,28.78286633229629],[72.94576996931406,29.02977191578739],[73.28290584397209,29.57220193299419],[73.39766915450973,29.946097132463127],[73.80584733977649,30.06730510545468],[73.96370190306605,30.19017331412548],[73.95991481088822,30.270333645593396],[73.87936967025735,30.35990646217649],[73.9634144191586,30.424227640645906],[73.96347091981137,30.485004879807413],[74.21542763238683,30.690984501791434],[74.36564213841628,30.893304635598856],[74.70389437528766,31.0731355051845],[74.68553504626254,31.128092375327142],[74.51092040574365,31.13253057750872],[74.55220536109972,31.364848338596317],[74.647345567711,31.456133648865702],[74.50327762496559,31.740154261628465],[74.55880415575328,31.759586521441328],[74.57208638885484,31.839137571528543],[74.91308404165733,32.0439743010832],[75.17635240821822,32.06856762229109],[75.37913837022353,32.185765887255144],[75.34159160333871,32.345329603587096],[75.2048241409745,32.41806107132586],[75.10674825262167,32.46028933272155],[74.94673145556388,32.44679770883043],[74.89111483292602,32.513126657769504],[74.68065599539068,32.49216397892255],[74.63784080421556,32.61313191071036],[74.65224504141119,32.78247681273146],[74.38245635327598,32.75749373628996],[73.95766661172176,32.98657030187424],[73.62705130060323,33.090181003187766],[73.65505138014478,33.208685240346774],[73.56435179220671,33.341752438728946],[73.61966776602598,33.56970808584431],[73.56129609505408,33.620829293141945],[73.58775979079189,33.88371219553989],[73.52153330305683,33.985139684656254],[73.49148601468457,34.22138651064468],[73.39007836132502,34.37442170795266],[73.44660244608538,34.573518384621856],[73.61682944033072,34.58665258612277],[73.74937852199994,34.7866080263398],[73.96452732292705,34.84261508469758],[74.07181432423243,34.93828533206707],[74.0659263147086,35.04781408490904],[74.13465967913385,35.09836445389233],[73.79821046355114,35.24311698808963],[73.73102984341025,35.21693107833125],[73.70044994218532,35.35713706345494],[73.79219252352772,35.459191820361426],[73.78280714280693,35.52405620110746],[73.6341026147541,35.57151729290376],[73.40663250076825,35.5634690085355],[73.13618047773168,35.71870695316427],[73.15192024179221,35.83848844066217],[73.0914457815269,35.88051450706763],[72.6896466783809,35.83281892568795],[72.53368365822544,35.916669974592345],[72.59155691598599,36.02160944577977],[72.53062295794598,36.07339161610337],[72.59484434421074,36.26171880189755],[72.77825816255134,36.310011074540654],[72.880083252257,36.38571568387632],[72.87927669866735,36.4431856910511],[72.99209256916376,36.45876098295529],[73.12547349645418,36.68651681708281],[73.44047649669825,36.74425346209802],[73.69888375500399,36.684194474873316],[73.80629935504508,36.715275675556654],[73.85459795131337,36.78706164007076],[73.7233837268735,36.83363509683975],[73.68975144466657,36.91197449603353],[73.8778208550542,36.89410552335452],[74.05628175730983,36.807041609780946],[74.14097593306087,36.83909679870674],[74.1683764320705,36.90235141074391],[74.26149512688684,36.88696228349395],[74.70816603893829,37.076943727665736],[74.73690627361152,37.02135666973817],[74.8396768237674,37.021956093699444],[74.9224368525833,36.90924187631882],[75.01707034083007,36.975211470471585],[75.0953004621551,36.94399468153097],[75.20822168513398,37.03570476611421],[75.34277527288009,37.052199352617926],[75.47322674142352,36.81142309403972],[75.61497401255461,36.76075470519017],[75.74855601308732,36.58747235407611],[76.07678993963226,36.47342706278209],[76.25346793872946,36.34795114157587],[76.35051751770676,36.359323436907616],[76.4832653995854,36.20985679199474],[76.6425912382651,36.183352604849276],[76.80008379717162,36.04726271876035],[76.72508780896533,35.951424916268905],[76.81095348097797,35.84398949874658],[76.9352614954618,35.78358397324815],[77.11510908311661,35.797049673424674],[77.16761467697076,35.73326192013355],[77.43011821443517,35.654077502426325],[77.44665272291624,35.513373500910035],[77.61265784086333,35.46858971167552],[77.81701067345149,35.51247474484426],[77.89815936899187,35.470627811146734],[77.96535047288673,35.57159069940229],[78.13699768495324,35.54352999117173],[78.19778962974661,35.66920085295503],[78.42257422693137,35.78467677038111],[78.52028168470936,35.76354577221285],[78.66418514617583,35.857538435597874],[78.95931242597614,35.89190678062512],[79.12938298612073,35.836131955018466],[79.21469809657503,35.97851906930142],[79.37677613513269,35.995014334321965],[79.42393545266349,35.89553518475671],[79.86589541731622,35.782776227248775],[79.99762918064857,35.836915255779424],[80.10648351583791,35.68055725099829],[80.28969722080849,35.60733582711749],[80.3263975347323,35.46987065974157],[80.18161559386351,35.165868646989935],[80.17347844890072,35.00245701862237],[80.0714984844551,34.828250855853085],[80.0679643518627,34.71376437442435],[79.85816487348423,34.688174093133334],[79.77836433246149,34.63002428333292],[79.79270886697701,34.484183885682796],[79.51330623971972,34.47528310410581],[79.59085585137474,34.28208524074063],[79.49299066180653,34.13499032091472],[79.35405306705171,34.03614911883079],[79.02063311824028,34.05029825671019],[78.9077013114119,33.97413844909207],[79.10610106696605,33.616711209616184],[78.91524008782126,33.57258042204068],[78.98649426379195,33.33678210609585],[79.45322538551137,33.257881380954],[79.37667905691582,33.080827445627705],[79.42155182465706,32.96053544408635],[79.62602315309756,32.739606182114024],[79.44712253659488,32.532034776556955],[79.31617312501486,32.5897602523701],[79.13635824785251,32.47494700667145],[79.11375351630713,32.38355849904346],[78.98072297845673,32.33819417334122],[78.85672617981554,32.440105476487375],[78.75496618095742,32.65391808117568],[78.45962040209048,32.58082231801598],[78.40177191640421,32.522381433951274],[78.53418204746956,32.413786972229865],[78.48387662725607,32.27953538297809],[78.60911647458487,32.214445621954276],[78.59406851867675,32.15123396464512],[78.78191597033747,31.993112449022604],[78.70643646712315,31.775102109149117],[78.84613487855273,31.60818607376792],[78.73872838241608,31.535822700869026],[78.79720778957254,31.443214245160128],[78.75172303958206,31.36721223379084],[78.7907840113836,31.305566017405056],[78.88067840900318,31.28552825281861],[79.07247849407028,31.455573524474875],[79.13822112270677,31.433582086744785],[79.32012713534961,31.134492393704093],[79.59856663643536,30.936581382950063],[79.86458576971316,30.97303645138702],[80.09983642487951,30.79160832292181],[80.17348723001477,30.808065784487102],[80.24993567978744,30.74483464534303],[80.2195891328364,30.582637549336113],[80.53915361509776,30.449259501682512],[80.60777813405821,30.471249066865873],[81.04510823439288,30.210065602630085],[80.92822549227516,30.173756840054693],[80.67505803957447,29.957117646777217],[80.60271784026226,29.955484539555954],[80.55424870707199,29.84988358371117],[80.36934598816217,29.74260222490622],[80.4089724491028,29.595546971725685],[80.24545860480747,29.442010207933034],[80.3187496724477,29.30134709393823],[80.14474435889457,29.10119769975896],[80.02973783941184,28.748704670496426],[79.95482019467656,28.722590275465226],[79.82014736116007,28.88565615926828],[79.58475389266258,28.846315274155586],[79.25881604678297,28.992170250166588],[79.04068110184272,29.16713639925065],[78.92720740425385,29.118518467274278],[78.8749381997102,29.204824945100018],[78.76053890845685,29.264231333445625],[78.91576170362131,29.437911674686973],[78.6167838151956,29.558436190036048],[78.50661681233132,29.726696444746032],[78.33239257115758,29.79618904451374],[78.0203963649255,29.581811741190563],[77.92774740475309,29.710716298093537],[77.82007561919106,29.6739200271571],[77.71609688505677,29.88561818455008],[77.8017284720631,30.095945525557276],[77.95270212405245,30.239309387934078],[77.72220854908156,30.329673285323157],[77.65801054762248,30.40008426624476],[77.58060050601671,30.398192558046443],[77.58303438821993,30.307671386337013],[77.22693098741405,29.93910931563278],[77.12245722612369,29.755972784590814],[77.15180189184397,29.687654765988196],[77.10665674449224,29.630978130147383],[77.14288926703476,29.165260926983862],[77.23284952912343,28.919163753158287],[77.2103706249708,28.790236231334475],[77.34141879087133,28.609846821022444],[77.30261304322809,28.563099403359907],[77.50504643244348,28.370633994625823],[77.47670151139124,28.085860148131314],[77.54174477317031,27.98982874419952],[77.52951321294364,27.926600112335326],[77.28574320922837,27.79464900792636],[77.35212397702593,27.65163940656182],[77.34199217890877,27.525924138941942],[77.6455682324749,27.24214474823943],[77.65796387884714,27.170483662899862],[77.5560583481481,27.108371381275255],[77.6610165071753,26.971143172873788],[77.40209957059047,26.82492388755373],[77.45754247251685,26.74927980623619],[77.76043697858067,26.93263238998481],[77.98716847356862,26.888710388530463],[78.10873063007526,26.895865689228238],[78.14885024363404,26.949129115182885],[78.27116343102763,26.920265112485275],[78.22223908728333,26.832296888037813],[78.11302604735539,26.793763786942403],[78.08919759011505,26.675580397493427],[77.90606423950733,26.659721239981877],[77.82312186458557,26.550474184137144],[77.43573673421848,26.402114760426713],[77.27108442866815,26.267275750246583],[76.90167429901263,26.09267778700234],[76.7876503374861,25.94406779532668],[76.54603940549946,25.836703703969526],[76.51581795790933,25.528216991039283],[76.66870838636122,25.35002016958825],[76.94782117922843,25.285438222380808],[77.08300279635816,25.336543379623897],[77.21892127816083,25.32040790180748],[77.31391003262397,25.431401244565038],[77.36742051189646,25.410783685932124],[77.41171805178216,25.22407303320186],[77.39341653714114,25.119351862175975],[77.31238125090772,25.080865900992933],[77.17638445423675,25.111112118858326],[77.0860575358336,25.054744045465323],[76.87640132639358,25.03773357508171],[76.86279460878454,24.960704604801574],[76.94994312906597,24.86914284033007],[76.81143485133305,24.79949472573941],[76.85527799003722,24.74570632954793],[76.94690133045576,24.759146098959608],[77.03405623866213,24.708284535007863],[77.06922557154282,24.55707332267007],[76.97748617907757,24.460852060025907],[76.863842370155,24.546634612162805],[76.82004251760443,24.531489266683202],[76.83307581470342,24.355330104954213],[76.92242303825095,24.21200428682228],[76.88113994490658,24.1309075771336],[76.80141387072106,24.1172767728764],[76.64099959913969,24.263353146119],[76.57047184544247,24.20923584451964],[76.32202292125562,24.244637897274842],[76.12534575883642,24.195091263440574],[76.12724604540412,24.0882876699351],[76.04209071388883,24.06565021973342],[75.93763179478786,23.89719886970163],[75.79378054930766,23.86622664946649],[75.68990816181885,23.747353593823238],[75.46207708175942,23.917812887341288],[75.52170614460763,24.02502569799471],[75.70148649641435,23.96698967442678],[75.83036291475808,24.054388008771678],[75.75109258728573,24.143270250475844],[75.81208096473044,24.246482791668125],[75.72815640885004,24.39622126567828],[75.7862541859615,24.45257700844332],[75.89926610880262,24.445993199280146],[75.92008084120289,24.54168386535015],[75.78774791713653,24.754170849145087],[75.60886377507599,24.68218427000737],[75.18376934934777,24.748167484606235],[75.34078707558504,25.020230922306492],[75.18956334484541,25.034976073562973],[75.11455948039197,24.96678325141676],[75.11645307944694,24.877395813709256],[75.0384755641471,24.84578296779414],[74.95896530793942,24.858150896515696],[74.90221361981651,24.927115327471764],[74.83485805061044,24.902919093728695],[74.86070248528385,24.8013464309807],[74.97729990091645,24.764648523349162],[74.99258871424875,24.69317623112987],[74.8886196943005,24.634071348446792],[74.80173600111135,24.72520297273218],[74.78614849928196,24.58594306386652],[74.70735486471861,24.489814629127743],[74.85496027000816,24.42371850817744],[74.75783053464924,24.24936983962748],[74.90848039932132,24.212004226919664],[74.8823646156823,24.17013191719797],[74.97423678275321,24.0401605541672],[74.90319390117561,23.874720635145064],[74.92224741309055,23.666233560960627],[74.84732225292274,23.552134767198023],[74.57315531821172,23.420562958293846],[74.53304503185619,23.329920766629385],[74.7341459821887,23.220807525109535],[74.50631804651238,23.084719651438473],[74.38624402026717,23.111235765030163],[74.31976243386644,23.05998031147073],[74.24911476739243,23.180667101815448],[74.12709457599657,23.175453960135695],[74.136354209765,23.266217464345537],[73.95998553461385,23.374647324863375],[73.89158954097046,23.33492905157888],[73.82748184151814,23.426778509704096],[73.62705070872792,23.449029850830968],[73.65306112771185,23.62026597649077],[73.57328250389038,23.652165852403044],[73.52305544061605,23.60713327011714],[73.36861563689715,23.814706913726106],[73.40393277130002,24.03890672506249],[73.3167929418063,24.053169434142585],[73.24321591573438,24.001685911511938],[73.06736832552176,24.194136145914754],[73.14806213628624,24.350964277735486],[73.07654165156346,24.396229913629615],[73.08053691795175,24.49420043265008],[73.00182462566865,24.478271975508854],[72.95877401264423,24.360491405069585],[72.72788253188465,24.367365746142706],[72.6806467909029,24.46402841721147],[72.52473403722628,24.498413126005463],[72.50001953907663,24.416866015647905],[72.33316031760748,24.63029503657997],[72.16513724411708,24.621694781572824],[72.05780823376018,24.711106925087545],[71.6559167670826,24.639569312801385],[71.4801133889682,24.679337475297874],[71.28738135126049,24.616199358413905],[71.11153034631138,24.675308249968186],[70.93720467160804,24.93925536852081],[70.8878749217274,25.14799095851565],[70.66501106539512,25.397047975818637],[70.67194217469395,25.676554517901817],[70.60884332292946,25.713420659934293],[70.38668959602325,25.673382427200067],[70.2689480854646,25.713248607843987],[70.09921458222877,25.938703379157833],[70.0839204948138,26.08304380227497],[70.17424119584082,26.252041901670896],[70.17234993372345,26.551190061445695],[70.05583337045354,26.59968001762229],[69.79183857071143,26.59858999572882],[69.51047221180697,26.742938035283007],[69.48448194520041,26.804795081237984]]]}},{"type":"Feature","id":"Central","properties":{"zone":"Central"},"geometry":{"type":"Polygon","coordinates":[[[74.05369461353385,22.298351266167874],[74.06898058275212,22.356073086417002],[74.18856416265251,22.325225681116265],[74.2126998215915,22.4279706764562],[74.11944179441171,22.41933973129835],[74.05828750774124,22.54991118168115],[74.14954722077208,22.522834145479205],[74.26318400433425,22.643399159226764],[74.37671429444194,22.637123200436484],[74.46428968108307,22.816343173353765],[74.45957136263394,22.900878438366234],[74.39316735273106,22.89638005197174],[74.31977431586726,23.0599584884704],[74.38551706834336,23.112189804486963],[74.50804114034786,23.08594677244957],[74.7205992212401,23.213198907332636],[74.5292718158338,23.32117074121489],[74.57197337294613,23.41991292241155],[74.84719503164645,23.553241293177734],[74.9223968489521,23.66724342174217],[74.90239104205526,23.873816415687195],[74.97236011540934,24.04201130001576],[74.87945592075732,24.17351306948803],[74.9013580092214,24.21741296122074],[74.75406334679445,24.242262443180973],[74.85036204934677,24.42870672597764],[74.6974904217653,24.482841603496666],[74.78462533251933,24.584824531736476],[74.80451450357417,24.73576703351018],[74.88916882815212,24.637063285798767],[74.99091281928476,24.695521285998982],[74.97504307735606,24.764544882134942],[74.8610999649821,24.799035419819152],[74.82593399742639,24.899377277011997],[74.90237579774897,24.929614151794933],[74.95933237791526,24.858780528294325],[75.0400198654931,24.846456352484946],[75.11402503177005,24.877761941413098],[75.11341916374788,24.96674158710028],[75.191399662199,25.036847808719738],[75.35171406390437,25.019014683585894],[75.19565017579842,24.74566185074663],[75.60882884288146,24.682936701316347],[75.78471468500084,24.76189226372175],[75.92080675516436,24.543319383541327],[75.90093003798759,24.44297728398249],[75.78703229453404,24.451808783029698],[75.73083699922313,24.396347247837102],[75.81376218493604,24.24500074649776],[75.75417326361281,24.141718314942242],[75.83669574687599,24.05666089074397],[75.70214286612922,23.965939117621485],[75.52278200720254,24.02227897682157],[75.46556835571602,23.922616232972345],[75.68405219108901,23.750026000070076],[75.79390180591616,23.866933572504333],[75.93866066531498,23.899239946163668],[76.04163171333951,24.066272609336732],[76.12526249757204,24.090921786718003],[76.11809671832073,24.194124545269208],[76.32146655842307,24.244985644017568],[76.5686092591531,24.209131188709076],[76.64411978788038,24.269727487627712],[76.67696208665005,24.191400390683118],[76.79846173772223,24.11902452613431],[76.87913378259093,24.13103000534299],[76.9201989234532,24.211173652975834],[76.83229890603668,24.35749529466011],[76.81693757838751,24.533691098173083],[76.8612670339505,24.548808215979548],[76.97769638467453,24.46427987191313],[77.06827097804452,24.56036781904976],[77.03198564606907,24.70926861291305],[76.94727287267774,24.758438296919184],[76.85515708236174,24.74404858519217],[76.80470688654718,24.807270575221505],[76.94225485661332,24.86972247035189],[76.86128117582344,24.961251114057],[76.87657170852545,25.04097342640795],[77.08689764216224,25.05579571925782],[77.17501376144945,25.111107126753932],[77.31710120829968,25.08315103790521],[77.39296828389908,25.12088959965899],[77.41130079943161,25.22583218775196],[77.36801913886138,25.407496519359203],[77.31687670600141,25.43007754787186],[77.22367776763485,25.3186957247683],[77.0825534100724,25.336181376334704],[76.94537528189487,25.28432708738519],[76.66994593260623,25.34906336294597],[76.51568437656057,25.527650372804203],[76.54626700475796,25.83833368004091],[76.78610206443453,25.943149725563096],[76.90103637147355,26.092658853663373],[77.27097831681888,26.267449965307424],[77.4375730176364,26.403242160816546],[77.82271711203995,26.55114405759576],[77.90418226794634,26.65905977334968],[78.08682764932678,26.679167783007628],[78.11215452914212,26.795161356974546],[78.22104918570585,26.832286327714353],[78.2651835649472,26.909587445673505],[78.1534326009628,26.947860712621445],[78.11060907323369,26.895538738006813],[77.98695724275234,26.888664623049877],[77.76308822164742,26.93135367801223],[77.45459555851106,26.742946803802173],[77.39802985660612,26.83091074246205],[77.65325300490811,26.969741127490916],[77.5509494036177,27.111360042214542],[77.65689281679639,27.176539678214144],[77.64358692361026,27.24418790724492],[77.33991649846323,27.526544492503064],[77.35167030408863,27.652104120415107],[77.28334014271138,27.7987372130829],[77.53032432169132,27.930728868250124],[77.47601461985785,28.08469276916719],[77.50491590429777,28.367116488528673],[77.2971035790579,28.567228456564543],[77.33736587832365,28.61440785436979],[77.20840778900416,28.791315934685407],[77.23207411564928,28.919057170425784],[77.14268102473619,29.16639589858273],[77.1059513156176,29.632659722073512],[77.14995115172167,29.687887728094296],[77.11971590828813,29.755013407039417],[77.22675656161441,29.939225499953732],[77.58098845827459,30.30539659904558],[77.57541395990965,30.40113918080238],[77.65797122076042,30.40114002219578],[77.72362429606122,30.329185241011057],[77.95920737102566,30.241673868946204],[77.80084738765144,30.09330067793531],[77.71723593176996,29.887980271701892],[77.82003716545192,29.677785693571494],[77.92710845162607,29.713758679322492],[78.0249129224966,29.585523559150513],[78.33564407353865,29.797534917837652],[78.51125167594543,29.724761945090137],[78.61724969035309,29.55823989655509],[78.92565239461143,29.43881548585614],[78.76776340581083,29.266189386887582],[78.92522685001646,29.122643387591168],[79.03599923083696,29.169268254039117],[79.15350849528669,29.115748767696775],[79.14637746839747,29.065866949436224],[79.25770770186386,28.99289133826159],[79.40735802618113,28.95215068681107],[79.42690976554655,28.89588724157938],[79.5857417696521,28.846434035162456],[79.82024274265683,28.887531972932518],[79.95741950870742,28.724349558638483],[80.02939808771131,28.749747169554308],[80.06492471631861,28.836667327883767],[80.11996434513281,28.82704695630638],[80.31844616053678,28.629179104878148],[80.45884788144802,28.625363733205305],[80.55273001637767,28.69094201016172],[80.66718493705045,28.64293738915938],[80.71737006316103,28.567369769888323],[81.21332763244908,28.358255706242826],[81.31979549706406,28.198299904960844],[81.42588686330288,28.171288531233323],[81.4797129126674,28.08246518775782],[81.88002373058656,27.859858505815065],[81.96111535165619,27.923830187731816],[82.06967802197696,27.923832634796934],[82.44812163457584,27.68022428160695],[82.70581647989712,27.70387457580705],[82.74122529655314,27.48807791061432],[83.18904289772836,27.453665039670604],[83.29511985197671,27.335493650221732],[83.40673704988852,27.4108915399683],[83.39550210216386,27.479786004596363],[83.61415975975991,27.46878862952905],[83.83107050425933,27.3699250770705],[83.99338688807974,27.174599276900324],[83.96691548654057,27.086564691711217],[84.04996998607668,27.043992921923014],[84.06242195234287,26.887905220182812],[84.25947226976157,26.804784720819534],[84.41848589626983,26.631578651109074],[84.28088798939513,26.599967649438394],[84.11374251943025,26.62879512023098],[84.05149703131497,26.551842750643917],[83.91772365773559,26.502371866569387],[83.9091605071193,26.45216972050401],[84.1570131864324,26.375859973134585],[84.1768904450453,26.26452125167948],[84.08716226522478,26.218151741514696],[84.06066625272943,26.096833517559105],[84.6249418867929,25.79159464158403],[84.60058231268087,25.73271129970191],[84.55766722687831,25.680257068798422],[84.34139553791759,25.740754688072958],[84.31887438361713,25.66787425577382],[84.20596235025702,25.669256593240874],[84.13471284192609,25.72807279406962],[83.8465909483377,25.434171988416107],[83.35192260920114,25.184965385019524],[83.39478399450725,24.78505782903351],[83.4887597194627,24.735778802484568],[83.53004521111711,24.643677135994135],[83.50269405662192,24.52563804569183],[83.39975313798493,24.493100896823584],[83.40923723339229,24.26699581930029],[83.33457376591262,24.109362740457282],[83.43218332524067,24.085519198525446],[83.57273887854821,23.862866736973643],[83.70590500735041,23.82019262933252],[83.7764653617881,23.61025232917361],[83.9371363728193,23.569661678210323],[84.01632738973333,23.634585300050553],[83.96592761647197,23.390003698696756],[84.07443492814915,23.33353196401395],[84.06358416180683,23.114043407700272],[84.17842139397698,22.981329757768812],[84.37416165020737,22.978840793566707],[84.39709253182487,22.927988186637677],[84.23806205274055,22.69153725516779],[84.01243186915089,22.574988939207877],[84.04690916859543,22.468816635563716],[84.01021261333103,22.371221519048227],[83.86400633548551,22.34362611098998],[83.62697828572477,22.201739383651386],[83.53779305344379,22.04371282740143],[83.5912116745925,21.825435650634113],[83.46462794164349,21.700334418382052],[83.48722274233717,21.643973426846713],[83.38221680349386,21.617349081674234],[83.33852995772081,21.501626535252655],[83.3924203293917,21.342908574549774],[83.26861820028591,21.37369638947795],[83.19209663384606,21.139441067253266],[83.0774191284043,21.111946752271738],[82.96474075199977,21.174921901627574],[82.64633089951109,21.15451068158914],[82.45961843632195,20.82600217064567],[82.34128870971685,20.86365918683294],[82.37703581737561,20.632147481024983],[82.33524205257223,20.56074895620378],[82.43820355465269,20.434179278320904],[82.39798493889707,20.061116503700834],[82.7180450746526,19.98875152137695],[82.69663970986093,19.83067110547699],[82.59419858499592,19.77569020491072],[82.53148467299297,19.878011795315135],[82.44802360676422,19.909137367396493],[82.34494041858183,19.836180729265788],[82.26610286363585,19.974876011855088],[81.94731250326693,20.102849189682978],[81.87644169360551,20.052136675595502],[81.86879554179957,19.903749720429555],[82.06508327936827,19.790786282768284],[82.03264365510799,19.51525117523865],[82.10025771005981,19.517206577251986],[82.12662185354246,19.43209397829656],[82.18894649047766,19.42784993109221],[82.16178650176933,19.20352232626419],[82.24552659034472,18.919210170391327],[82.17820640056625,18.901332655978436],[82.15836530134011,18.78860653493871],[82.09126719482795,18.737867317534423],[81.9030309079887,18.660661485228594],[81.91063533083212,18.570018253775295],[81.75007340102965,18.35418933099299],[81.65758273412305,18.346401381208487],[81.5317943165572,18.241397553089605],[81.48246233192566,17.97750011856381],[81.400964201408,17.894176234836284],[81.39682893084036,17.81803477389933],[81.16658971825686,17.85627592626479],[81.01608142653922,17.794664199341618],[80.97591799281365,18.159562985831478],[80.86622103923148,18.13973043800683],[80.84530299316809,18.202282953833414],[80.75612094469574,18.169976869871007],[80.70623081431121,18.437632672259294],[80.63795911060778,18.521901335801818],[80.45658700243938,18.6292764668247],[80.37228839223403,18.61126985810175],[80.2759573279775,18.719867328055443],[80.34599312657602,18.84637632800163],[80.27137245825631,18.942574721625952],[80.33253792795661,19.144654841130517],[80.57719004917882,19.397599682291474],[80.61446409241029,19.31000762566492],[80.75409092208423,19.289659218676242],[80.85224211045399,19.36532257925479],[80.89349753325634,19.515114823204964],[80.71483233153312,19.616212123673712],[80.54449248952355,19.817308093875788],[80.46864100043501,19.82654927943141],[80.54447748297034,20.098824838536142],[80.43193042055219,20.13587187822994],[80.39523589514182,20.24445872385982],[80.621555992262,20.33805318308421],[80.61479747936676,20.578207597230946],[80.52063702492173,20.57991789111054],[80.5798630943846,20.67498717670059],[80.54769472982521,20.926337775354135],[80.46404570512948,20.929105448276136],[80.4395786823577,21.096812366050287],[80.46404425447521,21.175165465526256],[80.61247647371424,21.22606221590618],[80.65322153160864,21.317993896630693],[80.42275498705368,21.440509888474814],[80.26977737250769,21.616312362277693],[80.12357701148906,21.610892806307497],[79.91811695457571,21.52437500687783],[79.73865413217172,21.602069864961226],[79.53888279263059,21.540872711516286],[79.49244748809343,21.672990914418552],[79.24149696825722,21.715455118418106],[79.2238545455528,21.64809797754352],[78.92027302178398,21.5920870650135],[78.89966720872381,21.50100140046609],[78.4332828755823,21.49688234436231],[78.41810341024443,21.56975887363555],[78.34253498558454,21.588578458837286],[77.8845143240702,21.38419245347193],[77.48824508332034,21.374528048184086],[77.45460824500645,21.55321675794554],[77.5716328202412,21.53518275000395],[77.54288162623338,21.704245713056768],[77.47732805325323,21.769924833798402],[77.28296633357628,21.758186093025575],[77.20991951538527,21.689345970644748],[76.99274292343026,21.68498225585261],[76.78510893021958,21.561190194921295],[76.7832681436533,21.463878139428765],[76.62602151425126,21.33431265570345],[76.66246137790469,21.28102808169162],[76.62270873431913,21.184808452020025],[76.49298652541653,21.190356518480723],[76.38262976005934,21.07620257868346],[76.16702953617887,21.078953162883757],[76.15922608860932,21.254392243327977],[76.09295227496584,21.370927717620642],[75.21149875086695,21.41159048079049],[75.10730069618474,21.46250787868589],[75.04856061365679,21.568286048362147],[74.58278549918352,21.66459895027897],[74.50480373776547,21.72645589825272],[74.52369203745802,21.909986524726403],[74.43271348160823,22.022893602607486],[74.28152654095484,21.934050681258206],[74.14680962508316,21.95072728412777],[74.09498245543094,22.016525920139447],[74.12210730356367,22.211102220301303],[74.05369461353385,22.298351266167874]]]}},{"type":"Feature","id":"East","properties":{"zone":"East"},"geometry":{"type":"MultiPolygon","coordinates":[[[[81.39685161144857,17.818035028740066],[81.39990876490575,17.89363075502162],[81.48200387121913,17.978754555895854],[81.52989207328623,18.24006699973128],[81.65833643393226,18.347291329856645],[81.74951646563669,18.35648443715877],[81.9091327226022,18.568994921831216],[81.89995605905715,18.66074035726044],[82.15517090395466,18.786177581177284],[82.17673615333962,18.90269542243645],[82.243698139896,18.92481816952729],[82.16144765535428,19.202404002779822],[82.18732774416736,19.420787879621844],[82.1262712569105,19.429247057977147],[82.09766814918285,19.515069243179727],[82.02840947560658,19.50761005504988],[82.0644341053377,19.784667512469465],[81.86936832454609,19.902161059483316],[81.87548864032861,20.051993294326508],[81.9458184311046,20.105599418656784],[82.26847020374758,19.975002978273203],[82.34556103642687,19.841328212526875],[82.44586483534925,19.910386522901263],[82.53148985490161,19.878771313437568],[82.59470243917424,19.779463310170403],[82.6969067421796,19.833885133684614],[82.71260658488143,19.98910573548382],[82.39846943074053,20.05613438863641],[82.4366449918202,20.433446804473746],[82.3327169123815,20.562034356686134],[82.37597794548515,20.632771600733278],[82.33883198701842,20.87408620897191],[82.46031141819243,20.83166844937501],[82.56198028244137,20.94955791158451],[82.64008126586347,21.154541606626193],[82.9657841129424,21.17516227586114],[83.07845596435332,21.112589004136726],[83.19110560347706,21.140510165907415],[83.26857425131045,21.3772514887838],[83.39290870171848,21.352056330586166],[83.33739401226148,21.50099219508336],[83.38326381122833,21.62058424511821],[83.48005868329193,21.644143707012265],[83.46125710041774,21.697578284994258],[83.58876681144115,21.8240310134803],[83.53771736841243,22.045389815411834],[83.62793322376184,22.203481793717298],[83.86342527188636,22.34370382793765],[84.0100231419232,22.373040656156704],[84.04586266249395,22.468224013477265],[84.01023400202921,22.573294001055434],[84.23792640718064,22.691676398899585],[84.39486639033,22.927367628950257],[84.36964578903756,22.97870346785],[84.17843780085543,22.980237437208235],[84.06375334322065,23.11358381432755],[84.0722824176862,23.331401655958455],[83.9628318608555,23.38578449887463],[84.01317124732986,23.61988659447746],[83.93834744042425,23.56863339003615],[83.77473676943923,23.609874292678583],[83.70568268484794,23.81862325866919],[83.57135430784008,23.862829299848446],[83.43259647276284,24.084392681989005],[83.32975018521812,24.102034755481547],[83.40774739409677,24.26491608986614],[83.40008728927688,24.497945753659803],[83.50453910567906,24.527770681421057],[83.52989497776046,24.641201658165688],[83.48864745113498,24.73497722523625],[83.39550001883256,24.781163510705316],[83.34962499475496,25.183951353938482],[83.8452462379076,25.433497767457883],[84.1402012448564,25.731096252375856],[84.20892584163104,25.669253070400522],[84.31653683232001,25.66956339000059],[84.33594721901797,25.743469082001415],[84.55519249871986,25.6817214344111],[84.62234583143713,25.786352654857158],[84.05611054158743,26.099549234673397],[84.08669089956175,26.219140202015588],[84.17525268025666,26.2669886874359],[84.15756426388796,26.371679081747672],[83.90777859113342,26.447364916295566],[83.91542312291212,26.50233855233179],[84.05049417263008,26.551653262151024],[84.11268257812168,26.630186452241706],[84.28088333169653,26.60016197894159],[84.40170392568702,26.63714080109051],[84.258758114259,26.804674147279],[84.06069704602179,26.887286910202267],[84.04976851186589,27.040942158418435],[83.96436002621994,27.083874274017738],[83.99138360285097,27.176255809621974],[83.83132211148043,27.427546659175082],[84.01557924262914,27.43762055723582],[84.0973884077238,27.51690246787136],[84.25794048844553,27.45091801635722],[84.28322291496254,27.394123047370154],[84.6203606027138,27.33956188386838],[84.68916844818428,27.221342061623687],[84.64842180006976,27.045735052444073],[84.96115825615678,26.960236507550764],[85.03195511362976,26.875251918407592],[85.19227110076783,26.869396168022966],[85.18080500499815,26.798440741153843],[85.25681856309049,26.753641333397102],[85.33539520502985,26.74217482417059],[85.64339235649716,26.852895707383144],[85.72901784103544,26.8089108923564],[85.72496821727438,26.673064441359653],[85.8564238999013,26.571258494901574],[86.0287493380061,26.665929162473752],[86.54233587679332,26.538166141366933],[86.72306496569114,26.425775987893555],[86.84774430963864,26.44245049679675],[87.04259645093586,26.56007041081536],[87.16295164506053,26.40494421882774],[87.46312743697351,26.44047083090405],[87.65833697870461,26.380057202860225],[87.84848380502385,26.436345064112377],[88.03217306319584,26.393496242170354],[88.09891833939255,26.456329291168853],[88.18608699947069,26.770863905520446],[88.1202745218559,26.950919076822746],[87.99224039164086,27.108615855175298],[88.04423441872635,27.478419101017092],[88.19664333127876,27.788210835970485],[88.20479478807722,27.941706644167787],[88.61919522811142,28.09842437675345],[88.75700344570046,28.076265429446323],[88.84397110376113,27.99257614124254],[88.8883160413772,27.856480728727018],[88.84855879935097,27.668144115141207],[88.7652277463425,27.561391642050385],[88.79439201250901,27.416491058881917],[88.9189002240293,27.32032147628975],[88.73778597793854,27.13997495058406],[88.86538241525261,27.108604871908312],[88.8704904245878,26.975937993034286],[88.92044369522927,26.994495954031272],[89.08844788316432,26.888783359243888],[89.12867206614243,26.806853113118265],[89.37461118850025,26.8542708601543],[89.8434405578642,26.697690660061685],[89.85937496673095,26.734668658916977],[90.19066889986922,26.772170722588193],[90.23096648511846,26.85839623936697],[90.41751810681089,26.905136478669775],[90.71776697035548,26.769121225762635],[91.05097125996808,26.781365359426278],[91.09801218621426,26.822651465343696],[91.33528819835496,26.78129325755069],[91.40843398243959,26.84052173490927],[91.49662842365132,26.79168389268577],[91.70245513558656,26.813369420115663],[91.8931845498499,26.91888357114719],[92.05514861963091,26.846726974737468],[92.11300152777414,26.89701072349368],[92.10344697571176,27.006481439378156],[92.03384730437014,27.064867524193186],[92.05462395424404,27.40147961137858],[92.01115382593963,27.486397143672903],[91.65463726893464,27.48255803625904],[91.55984363056297,27.63353878118216],[91.62478590411669,27.705049276618023],[91.63017597922821,27.80147890161366],[91.8258948432058,27.809727204214102],[91.88521850411166,27.72450005688534],[92.25712665924041,27.861966457522716],[92.31225367782697,27.780922077217074],[92.5621740031143,27.821485351728295],[92.73055171304213,27.972327970580267],[92.66238025823671,28.066819467781386],[92.68837159022988,28.125924760339178],[93.02478862553808,28.303265429108578],[93.21561104168379,28.34148167008046],[93.18230457133721,28.43249873052337],[93.27867824448514,28.504604480511457],[93.33980500624588,28.640080805873932],[93.95865836311934,28.713523075107485],[93.99735775925569,28.840797275431534],[94.15685177901892,28.954416016117595],[94.29095767100623,29.147361857410075],[94.43317097646754,29.227098803767756],[94.55714867675464,29.22923803418146],[94.67936326473823,29.327453766754985],[94.87315452904495,29.18339090715515],[95.44978715357782,29.035246507347335],[95.53877603388683,29.211977720733756],[96.08927413821525,29.459428959750632],[96.2435413118917,29.235329778015743],[96.39356525355305,29.253217377882606],[96.34617159505869,29.168006845153876],[96.21842619963672,29.13478176490721],[96.15539291445113,29.044280299272575],[96.24853121154095,28.944014538918474],[96.34618476793092,29.02913447827938],[96.43639855095296,29.0346339093391],[96.60765831837529,28.79406024464104],[96.58472354559242,28.717086327596473],[96.4788518311206,28.68539616825128],[96.4929685290998,28.633220245954924],[96.33607818532622,28.51751558416817],[96.37216118835146,28.4819898844508],[96.32671269415778,28.388674976076352],[96.66271743446117,28.459984403962],[96.77973747754643,28.36497769026048],[96.8966847255622,28.38025003720296],[96.99517423241402,28.311951328806064],[97.0893636645553,28.362374844169928],[97.37071828307448,28.21803607433315],[97.32791854422338,28.061651335354277],[97.38754479081682,28.003574530184302],[97.3753130753072,27.908731893522365],[97.25194520743081,27.89929269318803],[96.87637267262015,27.61181128377467],[96.93490423564725,27.508667281155432],[96.90716130886818,27.44915894242896],[97.16427514966934,27.141611242398167],[97.06337056720801,27.092131518810167],[96.86000115251463,27.189731682572315],[96.8822244275965,27.260890438977064],[96.79472330464839,27.346657241869366],[96.60778606809006,27.365325259188708],[96.50827016798985,27.29834155220604],[96.30499714788233,27.293736956959098],[96.02402336204955,27.181387671406394],[95.945524984495,27.050884682269587],[95.80285282593663,27.014607843470877],[95.74520243684022,26.89553938537768],[95.68275951788053,26.901554509008797],[95.60757668452672,26.813054337357613],[95.49633946628519,26.815447832508212],[95.4271299473103,26.697571943487315],[95.30327436124772,26.650833686340036],[95.2316809772172,26.677994289234498],[95.06566166703722,26.455483926571738],[95.12281891798627,26.348371312908213],[95.11720197859105,26.11134710073642],[95.18550876812222,26.07341928491993],[95.01583736564375,25.890515523543147],[95.04023976033967,25.742113704391798],[94.80781083173663,25.493286195584904],[94.67306578482622,25.44118323303667],[94.57707903696752,25.213933148950034],[94.65257331033398,25.116930892777148],[94.73593499713195,25.113834157525464],[94.74358021788127,25.03686050825012],[94.62889145820125,24.756415749399455],[94.3786000216499,24.49615188483423],[94.40715747589358,24.437466103810163],[94.15637498749389,23.847713579592106],[94.01568557074886,23.927757284336913],[93.80773214027955,23.926071044731366],[93.73710983862738,24.005898116501864],[93.62432474148727,24.010883616035823],[93.50495263138502,23.942570251906652],[93.38055986046402,24.086968008117623],[93.26379265627286,24.02556557827264],[93.3964035418371,23.925815230316523],[93.42390846398919,23.527632912908924],[93.35921793581791,23.328672145643072],[93.39177873102682,23.22080820427989],[93.30003476073188,23.00498605105793],[93.196636154876,23.054312948923236],[93.12507253525136,23.005989105996957],[93.09369185166194,22.709083308002647],[93.1991015225892,22.27772825159213],[93.1608744307463,22.18013271301895],[93.0500001937928,22.196110498601566],[92.99877847176433,22.05364957717719],[92.9391492528787,22.016536832426535],[92.71231830247577,22.14512919161996],[92.6883517779592,22.039903779369546],[92.59968173306034,22.01104002568795],[92.50966561589775,22.73974851428296],[92.37183323496934,22.936239089437002],[92.34583775139389,23.237299634093468],[92.39772387687731,23.270908362462652],[92.26215644413553,23.722304577677157],[92.1194205693068,23.728967921012206],[92.05986226182479,23.64287167784877],[91.9429803749899,23.680636958759777],[91.97421869369157,23.48063953406539],[91.94211358519728,23.42703505999186],[91.81583709347373,23.485809030556815],[91.83812174555737,23.370659407234488],[91.76056060308103,23.267454113927528],[91.80601150980117,23.062716873438095],[91.72038196509976,22.9871107981776],[91.57687755548055,22.965140013596375],[91.50661657544983,23.185435237747097],[91.45340930678508,23.26009042761675],[91.3197477302709,23.277183315506086],[91.25531803960835,23.48602709376894],[91.16071586649925,23.594746265926457],[91.15612804849046,23.741827691465534],[91.22737649954213,23.738458630989147],[91.21882610635893,23.879315383049384],[91.29986714778747,23.99753249213922],[91.62668493227538,24.102718615179278],[91.65616819212987,24.18587019237834],[91.7486508720591,24.149002050409123],[91.74639593431064,24.244980896536124],[91.92419220824662,24.126152503151985],[91.92225321770215,24.338479753472974],[92.07259928497042,24.37845031865467],[92.13867033697204,24.425544301558336],[92.15621472668403,24.52543569988022],[92.21642996909573,24.518172951075066],[92.29414094388767,24.738291687009145],[92.23420940090087,24.899375588431774],[92.2984173552636,24.915867667329188],[92.38720280838602,24.85204144589247],[92.50832930268369,24.88161890855959],[92.42576090446872,25.028861761073802],[92.07935971161348,25.184121756460442],[91.74729531020333,25.171605414273994],[91.64240197791817,25.124858488720875],[91.59966697728767,25.172491631937508],[91.4923013800268,25.134555678649534],[91.34907330197154,25.230941192722998],[90.44504454246332,25.144101868593314],[89.97447415129714,25.298958593525185],[89.83490772376413,25.29669944713503],[89.81503146141996,25.388793879237003],[89.88183868164074,25.615561239648617],[89.82727554487316,25.73271134184846],[89.88463373844891,25.946589983180225],[89.72923507646745,26.17087239710996],[89.63568016240153,26.22278836620735],[89.60935429869757,26.15319906693738],[89.64985074985891,26.063805907575695],[89.54129122775645,26.006073802257042],[89.34862097769287,26.010195617066486],[89.15441895295449,26.139421471650934],[89.09293161435876,26.392616661555863],[88.97968023570799,26.443908527474555],[88.91885833215404,26.38681919791844],[88.98618053925529,26.349745128289943],[88.92655679324963,26.28377497640605],[88.7598840965192,26.329139048041437],[88.39243909103273,26.622170669912283],[88.33841961323664,26.49938404422218],[88.48461717045701,26.461095551173166],[88.51519459008132,26.36487950605151],[88.4037941175329,26.330624878177094],[88.3515784420414,26.22190536012685],[88.17873927823138,26.14769153912825],[88.09369739290702,25.931727114119173],[88.101147278417,25.83139328110274],[88.45382736039308,25.6638829192402],[88.44976656355175,25.5935211329283],[88.6439701406228,25.479816215953534],[88.81186260915797,25.52350772997023],[88.8404815263441,25.364215565478137],[88.9877101150238,25.27331378595054],[88.90949597818692,25.17981092733853],[88.44239673009957,25.19918050788197],[88.45249880953352,25.079478839017597],[88.3943945725633,24.969503982765193],[88.27818770623922,24.88977536990419],[88.22548896694843,24.956765742189894],[88.14845533425039,24.918478530589486],[88.17418430813886,24.860892904154014],[88.02889414152864,24.689453548226297],[88.13460815498708,24.509983656966693],[88.55772499163092,24.30920171040886],[88.68341476691516,24.324723008843257],[88.74151875664923,24.254619625010264],[88.7029896966202,24.09635025870944],[88.73234234119373,23.91094384551213],[88.6074750167408,23.860290297021937],[88.56462140773431,23.712018329283154],[88.59358613458744,23.616999663088514],[88.76292501707215,23.44626629323528],[88.71499920967082,23.239334451491324],[88.94183844427013,23.205679551219962],[88.85926972594623,22.96865522161297],[88.96936261435158,22.844124570830346],[88.91512202180303,22.75713651374906],[88.96324633885696,22.692903149507902],[88.92784390632022,22.6476643296828],[88.99995213008006,22.428948542296435],[88.99581043108776,22.288508929376093],[89.0657052398305,22.207610950302353],[89.06876274345896,21.949166272118475],[89.0076066986207,21.902432025871647],[88.89026242985813,21.929043282620036],[88.94337086621127,21.914780182632736],[88.9479575684925,21.769099967721637],[88.7555728633692,22.009111914879718],[88.53202927247143,21.852942206737836],[88.44068955914675,21.91587777424757],[88.27156256672538,21.730190659593948],[88.30263848462548,21.67008422947968],[88.25983781107774,21.556018448301977],[88.14515968010791,21.954657259533814],[88.217486281116,22.105661935184283],[88.08598812446108,22.25862680755548],[88.00738555453923,22.24607449984253],[88.0181981813821,22.202119399959983],[88.13596372000947,22.18560761305553],[88.18641758845897,22.104511205967754],[88.06427173016253,22.01774043659038],[87.95534279378165,21.830786279883394],[87.67439918590016,21.650940982786647],[87.4855616804129,21.615114406837733],[87.4080724151577,21.544994617130644],[87.148617750434,21.509368056136687],[86.94886493235342,21.357209451107437],[86.8595790573612,21.21404780566414],[86.8532446843282,21.094672875343218],[86.976832788192,20.86035275032091],[86.96230009076805,20.777986162268242],[87.05634773514376,20.71463489149205],[86.78825614202972,20.533768344027845],[86.73785395468792,20.460983434664985],[86.77651162323104,20.33520195956953],[86.53349440659804,20.181092337907607],[86.3697388908983,19.98188494649493],[85.3522575828923,19.588310897910247],[84.98048511734059,19.315781465761454],[84.76563665080316,19.077315888048904],[84.69936465842626,19.117216472044294],[84.59130735271557,19.023698445693697],[84.51186940495613,19.04626327539166],[84.3191131456817,18.788612656151468],[84.08974322798578,18.75836807624682],[84.034507352705,18.81706037148457],[83.89095212381226,18.81610622685788],[83.79657435678041,19.010497754626282],[83.74861358645931,18.99158407087097],[83.75636116229886,18.91100705953958],[83.65942573263945,19.09869279207211],[83.48358353165476,19.035682478044755],[83.45970697230311,18.95633809439793],[83.34747001916588,19.014361832554727],[83.32140790883635,18.970673614451876],[83.4122908621745,18.87383779984387],[83.20433956993728,18.752869783732123],[83.13349285685904,18.78197024599476],[83.00286810573192,18.612678311843744],[83.04376254855633,18.545266584651664],[83.02110958901075,18.457278838569263],[83.07739755671986,18.403672831039955],[82.96884443570228,18.36106257517405],[82.80905450048256,18.444293856649278],[82.77310040529224,18.341813554115152],[82.58656286435996,18.277208102750212],[82.60467958115265,18.36859397091766],[82.48019927401505,18.52426575182861],[82.36431195189734,18.422990890258358],[82.31899913046917,18.045092173582372],[82.25012678423347,17.992632153279057],[82.03370665593295,18.068927353452896],[81.61704024501721,17.823532992097228],[81.39685161144857,17.818035028740066]]],[[[93.64564839664084,7.126557266646899],[93.67491527064273,7.191241374353021],[93.836779360036,7.2406510000369355],[93.86888590901393,7.2049149893266335],[93.91475814123625,6.949215848226697],[93.87806056296009,6.7938775133101394],[93.8000890952256,6.766387558328685],[93.64564839664084,7.126557266646899]]],[[[93.63646384173667,7.244807421657208],[93.60907423240103,7.312354703650908],[93.70068462538413,7.44548098233938],[93.74348852739385,7.37676330713289],[93.7129081717099,7.312158499799158],[93.63646384173667,7.244807421657208]]],[[[92.53545649718555,11.912052447188218],[92.60083046994134,11.864369892450323],[92.66084481345916,12.214508873996094],[92.75657678851708,12.17800084045813],[92.73558788744505,12.086446957118005],[92.78162489540419,12.048178292157937],[92.71076388091001,11.97291859235129],[92.79080619919498,11.885954972008784],[92.75410707329084,11.701749545379831],[92.67322675534237,11.655202216086689],[92.75104086879767,11.609628808357861],[92.66542693957086,11.505171682629978],[92.55074874340988,11.719617000556346],[92.53545649718555,11.912052447188218]]],[[[92.7650849861412,12.18365434570348],[92.74036839568195,12.246141642512077],[92.79538599250807,12.308761011217825],[92.69907848512212,12.328632573304844],[92.72966443265467,12.83590593261735],[92.79347694455447,12.86701086566796],[92.84135825285465,13.39152866893612],[92.98808559858301,13.574141053347235],[93.04312302683513,13.528785120940709],[93.03394734621676,13.08199997311629],[92.95902870455959,13.016022430533406],[92.9095058946864,13.045061513045042],[92.86110710527572,12.90920747703982],[92.92393167438796,12.883789415950238],[92.9743091323361,12.543092424113276],[92.85323743929101,12.314987341159705],[92.85503444833031,12.159549536203173],[92.7650849861412,12.18365434570348]]],[[[92.72048838130586,9.218926084046258],[92.7923398744472,9.238167109799361],[92.82597448892733,9.140583297394315],[92.72813158566767,9.126838860450066],[92.72048838130586,9.218926084046258]]],[[[92.59814884063778,11.347068754753487],[92.58601305855525,11.400887737964968],[92.63942745088566,11.510623574718268],[92.68987757235405,11.374557050932136],[92.59814884063778,11.347068754753487]]],[[[92.37794882693728,10.782025787472305],[92.52014892883966,10.897492024852502],[92.59659946079717,10.681675406453625],[92.5308496659357,10.520841730056059],[92.43299720344206,10.551081594108418],[92.37794882693728,10.782025787472305]]],[[[89.01526942083719,21.778647279686332],[89.09322676445079,21.652216661744703],[89.0382001139182,21.610991640310296],[89.03815799585375,21.611216215473057],[89.01526942083719,21.778647279686332]]],[[[88.74612327400466,21.66185054051613],[88.69110567987117,21.751446421031233],[88.71554132906782,21.905150324114473],[88.77669006113743,21.868043189078488],[88.8088008402928,21.668720298086942],[88.74612327400466,21.66185054051613]]],[[[88.03200255818643,21.68796626950508],[88.10386367087672,21.841916561996968],[88.16654249132488,21.822673891918672],[88.12526100208788,21.67422262913741],[88.03200255818643,21.68796626950508]]]]}},{"type":"Feature","id":"West","properties":{"zone":"West"},"geometry":{"type":"MultiPolygon","coordinates":[[[[68.10056835390152,23.678594555256556],[68.17145551714967,23.698111120385125],[68.20913453429034,23.875185030573427],[68.33910945954756,23.965913241953093],[68.75083676418481,23.974156394273983],[68.76422989091454,24.29584666272973],[68.84834160531312,24.241472614482493],[68.94619026348035,24.30272536186424],[69.00594607717265,24.226090795934383],[69.09452525246235,24.273857966286524],[69.19443036748888,24.23743029813466],[69.59456562775536,24.2931041130912],[69.73293366472713,24.17124485935241],[70.02147791899492,24.170811137993134],[70.1099127451527,24.294480877464384],[70.5732376623303,24.422329161620624],[70.5752315238431,24.2514435497852],[70.80239343687091,24.22027367156431],[70.98613251961392,24.365965235505904],[71.05236698633533,24.361630431985123],[71.09406881607879,24.43044337108999],[70.99837444092931,24.444351213774976],[70.98614199043749,24.595556717340152],[71.11152465892201,24.675285823296154],[71.28537807889309,24.617747918780626],[71.47772645757547,24.679588582360488],[71.6577544917834,24.640945832363187],[72.05843347902734,24.712379552423958],[72.166513159823,24.622514972449455],[72.34730609645634,24.628533096718062],[72.3538021523573,24.563672963003015],[72.48143361183159,24.436528905665373],[72.5389443817103,24.519429790704507],[72.68330534333388,24.463734966603166],[72.73306171170113,24.367250046859215],[72.95531024742164,24.361321958957223],[73.00160869021835,24.4800725324131],[73.08722058286618,24.497940844086937],[73.0778965128786,24.398038271579818],[73.15144453534003,24.354976324883918],[73.07057647984739,24.190623350752457],[73.2436911124056,24.008232253962525],[73.31661463889542,24.05389814020846],[73.40529450637159,24.041527110490804],[73.36973560020779,23.814582250537132],[73.52016397227904,23.615519200052713],[73.5719886813909,23.65384343456466],[73.65607869505789,23.62085475484908],[73.63145950486741,23.45292047678393],[73.83018174948299,23.425738262712798],[73.89237776103165,23.338979503897402],[73.95886660858308,23.38026341211254],[74.1393021225354,23.266168326410845],[74.13132957896013,23.17941889519184],[74.24788033449428,23.183677198143045],[74.39101724005766,22.90163752580142],[74.46043335383446,22.907350922981415],[74.46501989367077,22.816634280257052],[74.37938792723857,22.635175937220662],[74.26404803721684,22.642566770722976],[74.15001590073284,22.521070800071353],[74.06788614120286,22.537723126042522],[74.11983487302894,22.42235128792145],[74.21575897755203,22.441307270354354],[74.18976967542737,22.32035846554459],[74.06633732608921,22.34613902981737],[74.12248296244715,22.211734893329048],[74.09781022813632,22.012999379692022],[74.14823397646656,21.950808882389385],[74.27993491554962,21.934427970358197],[74.43291230594919,22.030253698843417],[74.52465791083029,21.912036660421062],[74.50910585450539,21.723027515432495],[74.58483959256509,21.66405730313346],[75.05223249136233,21.56697030581435],[75.10765222947647,21.46287011512498],[75.21087706522721,21.41187245125508],[76.09513904432652,21.371751635050536],[76.15936171872929,21.25490658508991],[76.16928286663331,21.0820015878326],[76.38015527110889,21.07626748541739],[76.4896848960335,21.191659324470756],[76.62397484914747,21.188893537195256],[76.66096004574456,21.279334523504634],[76.62120277469784,21.331894277940776],[76.7815337570207,21.463030636744822],[76.78194026168737,21.55887193483183],[76.99889343453046,21.692063541364583],[77.20906667722315,21.690319912382552],[77.28027208154352,21.758057426216183],[77.47905655554703,21.770431088204717],[77.54327570125454,21.70444862448616],[77.57538578758006,21.527125588623147],[77.45726876815394,21.54136461668984],[77.49596230339745,21.37728185213073],[77.88698403097813,21.384823483271813],[78.34305261956656,21.588960586580157],[78.41950173116537,21.57109389028843],[78.43883036213211,21.500948751597626],[78.8936467443355,21.500910732320897],[78.91650716988421,21.590342319114487],[79.21862656553529,21.646615606270398],[79.23457818056649,21.718187065679754],[79.49604965505551,21.674197828881233],[79.54288808488752,21.542905258092144],[79.73919978586348,21.602709009913948],[79.92021026398122,21.524842055585626],[80.1215022600698,21.61096048629846],[80.2682955497948,21.617833441638474],[80.42421519090749,21.440057793765448],[80.6612806412465,21.333252730447317],[80.61388632545197,21.226050399234673],[80.46634079950674,21.17553843979679],[80.43979814374944,21.096346043558043],[80.46403376888514,20.934519434147305],[80.54660136987002,20.9345792396447],[80.58024147104682,20.673391393066492],[80.52964224029948,20.589698842019065],[80.61694129365742,20.585392224834916],[80.59134222892328,20.39445417816119],[80.62611348259102,20.33245515607759],[80.3978673227226,20.237208886658088],[80.43192420455564,20.139451174502053],[80.54506887224531,20.10011148260159],[80.47569227918937,19.8302574192626],[80.54660248579327,19.81828039459717],[80.71594233199245,19.61584767411484],[80.89525334793677,19.519963988720335],[80.85243997274962,19.364628684089197],[80.7515195409859,19.28764934958246],[80.61237450605482,19.30964190555626],[80.57451267874497,19.39246311194377],[80.48292106394584,19.33726115664024],[80.33331063916256,19.143647584837915],[80.273290255059,18.946329708754092],[80.34933214039965,18.847715108629828],[80.2759338623586,18.719871321277765],[80.11844241541368,18.68000781860094],[79.9135480092326,18.825720886564103],[79.96017804867475,18.868009659499936],[79.93985805713206,19.031693120654165],[79.85849530034861,19.102044155172027],[79.92895600234739,19.160063468743772],[79.97715702360414,19.399380187743297],[79.80548635142804,19.57950473621726],[79.74068164248132,19.608031439060525],[79.47159437187057,19.500736912289756],[79.25732206365225,19.591754699263724],[79.19021778434015,19.459498710125015],[79.09679308383693,19.53197781410301],[78.9363901302249,19.55022399490423],[78.95370107214714,19.654031230615473],[78.85992765453416,19.689073718150947],[78.83830067310448,19.76214915809077],[78.43175028099719,19.814178195020716],[78.32015904279662,19.90100139438615],[78.36444661519657,19.78117220380321],[78.27877574017259,19.687052895506735],[78.3093977788063,19.481483550745768],[78.2116807899284,19.425918494066167],[78.17483277126401,19.238159182062198],[77.94522393500164,19.340751230814444],[77.86408354532084,19.302758676887375],[77.79804588767169,19.070074923390763],[77.84307530578894,18.909427719145175],[77.94849653206096,18.843593122757202],[77.84137146678856,18.805093897638315],[77.78794811966365,18.682754217157363],[77.7322751880852,18.664566931776466],[77.73900995153373,18.556278190568865],[77.59760124980137,18.545620829431986],[77.5262843113546,18.371803370372575],[77.55091883417089,18.29232087715892],[77.46530001427233,18.26208175647896],[77.40873104426349,18.301943439578338],[77.41055020073168,18.39327533040331],[77.31484451091322,18.441148228961826],[77.06464706182027,18.150728267356005],[76.95083053927522,18.183349852413595],[76.91936563057173,17.915639580882466],[76.76763091528153,17.874211135175848],[76.79091060685458,17.826275705848815],[76.71505651824495,17.780447519628726],[76.68540780114915,17.681946549155466],[76.52695826531684,17.757377756419586],[76.48966731523045,17.65993670735132],[76.33393217815312,17.596165537117244],[76.38262045712266,17.314879914609804],[76.22918679008563,17.365423272351784],[75.93152950554678,17.323123616104247],[75.89391947632566,17.39803281803363],[75.81377663207958,17.372615756587145],[75.63332680200902,17.47307646089069],[75.57489601927942,17.38160532370763],[75.65472599952321,17.273615646645123],[75.62675546331779,17.175450592762477],[75.67307938300416,17.115520683224066],[75.66543371699001,16.979433941243514],[75.2856131582436,16.955600579112012],[75.26478678474145,16.86257903443998],[75.18222526943293,16.84333611210162],[75.08295592654027,16.949005900415337],[74.90611656898439,16.86347053246858],[74.91918705822364,16.77322163332006],[74.69716593990778,16.715508936777386],[74.6299726668533,16.583391900347127],[74.57055301714165,16.55464123217875],[74.53677731918108,16.63277500189334],[74.31898349620154,16.554679433973917],[74.31775382238445,16.326253780536195],[74.37361455196425,16.262438038176445],[74.48031243971556,16.24941888761313],[74.48031140362079,16.147703915922488],[74.38354757133716,16.0837232755364],[74.46348629220867,16.039086060771666],[74.34574557129828,15.76415139695888],[74.20567885095404,15.776922179053889],[74.12250286682203,15.717307762517132],[74.1243145562702,15.654012946840693],[74.23717493826247,15.667895692458632],[74.32586452636572,15.282982573287484],[74.26627833698011,15.241082058944942],[74.3166867850106,15.186741436076908],[74.27352320259754,15.098800608922998],[74.296807185229,15.041021801699983],[74.20200528261562,14.925550785743848],[74.08579862824085,14.900808136661233],[73.98181796071934,15.054772560734088],[73.88401706368397,15.354229374670835],[73.92835977358378,15.431848289569277],[73.7662023634107,15.49469794649088],[73.59063621542356,15.906419511632398],[73.5108275306015,15.9373681220398],[73.36861733182724,16.36353740400958],[73.27686422983673,16.89144058836609],[73.2889312138851,17.115486891006526],[73.22334385375746,17.265372764353337],[73.24237970139336,17.32316617656553],[73.18358281391282,17.38498044493768],[73.17699157919918,17.58433165190477],[72.97255943595515,18.124597673752465],[72.96949746278895,18.242815183609412],[73.01826054762996,18.271210894191736],[72.91438862059998,18.354433689121574],[72.89456710664086,18.46278191074022],[72.9330224852647,18.54269201590677],[72.80281643144427,18.90545701352107],[72.83864557431146,19.04781493467985],[72.78599483421029,19.12954282859045],[72.79755436418611,19.30554182855773],[72.65448643470393,19.83616457840332],[72.66365943825538,19.933763691133457],[72.73062438965725,19.974694900436056],[72.70800856687428,20.073991312486516],[72.77359166896267,20.133226832791514],[72.74012086974253,20.243089934693298],[72.83645834909338,20.453417199446992],[72.8871403589381,20.46612781305289],[72.90350735407868,20.575766809267925],[72.7312140351723,21.065071693516117],[72.62084381553568,21.099570444584522],[72.59790773238397,21.316768150414333],[72.73078958892648,21.48180956110976],[72.61014895767514,21.580727732521304],[72.69138618341643,21.64683750895631],[72.54286184726928,21.73332662553995],[72.61846555550092,21.811646763416466],[72.50921241558048,21.94366439047774],[72.56732090991841,22.181484715618044],[72.64835683833284,22.215850062488883],[72.7549560868554,22.17424422973231],[72.92938278666941,22.28690278117375],[72.51775017077955,22.32023645825908],[72.4602646349595,22.25712093877967],[72.37421552934687,22.304898132421826],[72.20591898768049,21.892931118186063],[72.24157951907092,21.824058476175573],[72.19732000100488,21.747591343905388],[72.30886393233624,21.624716423527087],[72.10984318363813,21.302871605424407],[72.11312988618221,21.198551909475174],[71.51123594937064,20.944195656574145],[71.43723363601458,20.868615591471666],[70.97695086701314,20.702274886064377],[70.91874942429341,20.740271494823038],[70.82709330506414,20.689899366569097],[70.44786226404823,20.847994704018465],[70.0917620897457,21.114513737984886],[69.70725519928105,21.535773607316493],[69.21666951657413,21.957618359491946],[68.93702996138845,22.310720299597808],[69.00583617945037,22.439931252034743],[69.1633256105567,22.347831511195114],[69.18924580539577,22.22012267558418],[69.34072763208552,22.312084882777],[69.75384925851351,22.418052859378022],[69.97534020003054,22.543044170095865],[70.1248497415894,22.55339516124305],[70.22137706882064,22.659719141397087],[70.21848941940168,22.71764247364999],[70.39892187546133,22.904596358119253],[70.454625520443,22.854919050301138],[70.71051157567453,23.185219038519843],[70.31298749355872,23.21490080499973],[70.08084276339342,22.919748490953534],[69.64808910003478,22.79602279352059],[69.41699711322991,22.811172766615194],[69.13123001266398,22.874383464929224],[68.63291976599841,23.169817966302325],[68.53179609174421,23.279926232703527],[68.54565166757186,23.356604942471574],[68.40028687027106,23.420154838754033],[68.41170888647335,23.482788173200927],[68.32688154751081,23.495769772648714],[68.3074093793554,23.577500011500145],[68.1418472634766,23.60162539327706],[68.10056835390152,23.678594555256556]]],[[[72.29206841626797,21.967027342268263],[72.37462900505288,22.028879892412046],[72.43731423376884,21.92716465138115],[72.35627957857862,21.79795523294393],[72.29206841626797,21.967027342268263]]]]}},{"type":"Feature","id":"South","properties":{"zone":"South"},"geometry":{"type":"MultiPolygon","coordinates":[[[[74.08580698397449,14.900786590848522],[74.20210702566057,14.926308863633631],[74.29353737343372,15.037098394828229],[74.3144276576058,15.185863233545817],[74.26013984475608,15.241731955499324],[74.32565778485865,15.287790654346145],[74.23886261992413,15.661312519453976],[74.11791861188756,15.651424084696796],[74.12250552651132,15.720141864672803],[74.20965522307951,15.780621667871328],[74.241623624955,15.745844097816205],[74.34562741025096,15.766534293086126],[74.459241480098,16.03314012912575],[74.37177506350132,16.078961239654042],[74.48027313709697,16.152197017059187],[74.4774582545857,16.247525284053797],[74.37328577984633,16.261811630756625],[74.31671176147943,16.32641863964874],[74.3151849067228,16.554616501896938],[74.54454202749777,16.63571962170363],[74.57127670514917,16.560148718467747],[74.62711253224771,16.582007360516958],[74.69594699696617,16.715462050342605],[74.91266974937687,16.774876681449605],[74.9023933295919,16.862562437512295],[75.08893731562144,16.95191341230927],[75.18616397192451,16.844442920711764],[75.26394730487577,16.86470804814732],[75.28009927370532,16.956040562028043],[75.66199172381842,16.98080589308009],[75.67264028935354,17.114400964992697],[75.62569807938718,17.173266513601398],[75.65280475989998,17.27129149241791],[75.57370505870524,17.383600143361168],[75.63333490761333,17.477069949040565],[75.81244390842896,17.373853572311756],[75.89481641828426,17.40145869374054],[75.9357191900724,17.323914221048227],[76.22971368046373,17.36571648885383],[76.37586639966062,17.320251103372595],[76.33218234964785,17.596680515169982],[76.48875409561224,17.66090644840433],[76.52332580342463,17.760269854316824],[76.68828725943843,17.695961234803725],[76.7862534974289,17.82679779707128],[76.74049790995414,17.89910119165614],[76.9168005626891,17.917905877627035],[76.95149762229744,18.18781833165717],[77.0667753440116,18.153978681388963],[77.31696622951631,18.442147877647344],[77.41329449037936,18.39266446234743],[77.40959871960409,18.303484765374286],[77.46107714730154,18.265043735093748],[77.54503994270218,18.29101548565619],[77.52495004083009,18.37204728344039],[77.59681924736162,18.54938148011024],[77.73501888180931,18.558443815921486],[77.72986019122345,18.666238594008423],[77.78827732699638,18.68462106951692],[77.83995913169068,18.80508693367443],[77.93481812183292,18.842589931694928],[77.84301695718838,18.908210937837158],[77.7971452621361,19.073172763217126],[77.85936450420903,19.1800131354907],[77.86289914125963,19.304125412966947],[77.94393282230318,19.342612898103077],[78.17085188374759,19.240898932685546],[78.21155318883143,19.427853144145647],[78.30816681510318,19.48276625084719],[78.27578316084593,19.69180645148722],[78.34217410582664,19.71468080578798],[78.36377933821352,19.780615773270128],[78.30637297206843,19.911753684052947],[78.43405207124799,19.81463398769216],[78.84155712691177,19.761915838380435],[78.86163903271134,19.689299621773483],[78.95624398773673,19.656063102509727],[78.94181628653251,19.55125867064472],[79.09693757702144,19.532332371526774],[79.18389070597378,19.465421523070393],[79.25292569304365,19.592818880481442],[79.47276018234959,19.50204121495984],[79.74378761628905,19.609314339598413],[79.80647629137088,19.57907308907407],[79.97774312025122,19.398989815362164],[79.928809420297,19.158414777878793],[79.86435004019853,19.102974908786987],[79.93951394079788,19.0346757504236],[79.96091993023569,18.865591588875848],[79.92314460376598,18.82203624086087],[80.11691332980102,18.68197767937779],[80.27594133890439,18.719849179158413],[80.37142287776385,18.613363162714258],[80.45485862968408,18.630491716617204],[80.63682746962351,18.523265337946764],[80.70571936302643,18.4391927065387],[80.75799419743855,18.1772798705811],[80.8524412357129,18.205689923701158],[80.87124213915206,18.142121487141665],[80.97935926584312,18.165821951471568],[81.02285702961323,17.79510567614022],[81.16593414119296,17.857877980401035],[81.26685309930333,17.811277951544362],[81.61741676293613,17.82390890058866],[82.03145729894453,18.069592234007903],[82.25438939379016,17.99609668834424],[82.31979574952031,18.048263775237036],[82.36177125237417,18.42153802802399],[82.48561944675468,18.528755857352124],[82.6064156679555,18.36654815276663],[82.59776720426322,18.282802316264995],[82.77154884458075,18.342004878931323],[82.80675708961321,18.45176654732049],[82.96653115511198,18.361732206155914],[83.0634357651315,18.39823067600017],[82.99944313781035,18.60850718496187],[83.13553005778695,18.785836510712738],[83.2071489129562,18.754709415335725],[83.40373763590144,18.869365882599084],[83.3175146772991,18.974193258753225],[83.34808725594452,19.018169208843343],[83.4563644199305,18.96168149505777],[83.48113233044359,19.034673688607256],[83.6630895630484,19.099283102845057],[83.73526482028521,18.957495622160422],[83.79307201041071,19.018167645824366],[83.89113862600202,18.818189671665852],[84.03621350697327,18.817459324990946],[84.0930296681612,18.759780329038453],[84.32037281464713,18.790729919741807],[84.51485738427516,19.049790541621558],[84.5901249015072,19.02664692735211],[84.70141343560607,19.11852719604769],[84.76409453488425,19.074547149191037],[84.12796045099815,18.31294286760962],[83.66276056231123,18.078862747415762],[83.16151703968634,17.559579469918603],[82.5429540335546,17.249319812137024],[82.31942883921768,17.0581176312964],[82.24859772165505,16.93276169924111],[82.25313797859104,16.87628130587259],[82.36174298196633,16.855685991653328],[82.31434201246365,16.55875777136274],[81.71491182591859,16.31130371974804],[81.39362741810814,16.34290793816241],[81.26662257945962,16.278908998848998],[81.14757339599416,15.974483637197213],[81.01567957316233,15.851258805822813],[81.00841454059116,15.754524933236677],[80.93807989807603,15.716037026437004],[80.83104486327281,15.706410455208172],[80.77446767229917,15.865072618897683],[80.67862849525653,15.884829967212422],[80.41818759758277,15.798462463022233],[80.25248957046261,15.634945761177779],[80.12283158714676,15.36709867665247],[80.04075602236868,15.008929073248947],[80.19641346973988,14.585973234529838],[80.13085912261641,14.228519281783605],[80.14583458884152,14.043161844987054],[80.25452550332916,13.783118262989264],[80.23355803756141,13.656149880050977],[80.34474442956505,13.275836750491749],[80.13830870383063,12.41111930437387],[79.8581042712316,12.048306218825871],[79.76074848194779,11.623826834153315],[79.8569343416826,11.176584249095194],[79.85999600748353,10.283005676683823],[79.38991127025585,10.317281593711282],[79.26731257421952,10.229558102916673],[79.22757787511141,10.137716158341949],[79.25137555830142,10.050664051752157],[78.98022937617003,9.688185793709797],[78.90053505972058,9.470831916984608],[79.06541071318213,9.298782332396426],[79.33547574217991,9.311029449078712],[79.3033763356981,9.245068847739386],[78.87343407803203,9.257620350900202],[78.38385248486539,9.093458381708334],[78.17199619520132,8.883417922741867],[78.19470763665967,8.751519219503727],[78.13837981414102,8.6783870491013],[78.14257643408162,8.501095929246045],[77.79406652249743,8.163134191947531],[77.59249678911854,8.139944918914836],[77.5555143432773,8.076526271235442],[77.23286839967471,8.181006518786567],[76.95938711096568,8.421345313464323],[76.54779702578276,8.902748619733757],[76.34893182603037,9.38685173946832],[76.1680725168447,10.177611455303628],[75.91012253016191,10.793031607340614],[75.82571126516447,11.123670837374284],[75.69831404349922,11.423511101836528],[75.61805032055616,11.477664452341724],[75.55369010236257,11.699552521540488],[75.25284041455816,12.005439651287007],[75.20047351881556,12.007165949905634],[74.82287200837811,12.846915456754386],[74.66973682563194,13.635335552696784],[74.39465361327306,14.418244048379057],[74.26930636587628,14.627222578409079],[74.26208920844435,14.717977360770142],[74.11791588476069,14.78532378818395],[74.08580698397449,14.900786590848522]]],[[[73.04288527867239,8.263495231202867],[73.05334937128467,8.273122897570618],[73.05356604706843,8.273095322219767],[73.04288527867239,8.263495231202867]]]]}}]}